#dP2023 11 25  0  0  0.00000000      96 __u+U IGS20 FIT  IAC
## 2289 518400.00000000   900.00000000 60273 0.0000000000000
+  118   C06C07C08C09C10C11C12C13C14C16C19C20C21C22C23C24C25
+        C26C27C28C29C30C32C33C34C35C36C37C38C39C40C41C42C43
+        C44C45C46E02E03E04E05E07E08E09E10E11E12E13E15E19E21
+        E24E25E26E27E30E31E33E34E36G01G02G03G04G05G06G07G08
+        G09G10G11G12G13G14G15G16G17G18G19G20G21G22G23G24G25
+        G26G27G28G29G30G31G32J02J03J04R01R02R03R04R05R07R08
+        R09R11R12R13R14R15R16R17R18R19R20R21R22R24R25R26  0
++         8  8  7  9  8  9  9 10  6  8  7  7  7  5  0  6  6
++         6  7  7  8  5  7  6  8  6  5  7 10  7  7  7  6  8
++         8  7  7  7  5  7  5  6  6  6  9  7  6  5  6  5  6
++         7  7  6  6  7  6  6  7  6  6  6  7  6  7  7  6  5
++         6  6  6  6  6  6  6  6  6  5  5  6  6  5  6  5  6
++         7  7  6  5  6  6  6  8  7  9  6  7  6  6  6  7  5
++         6  5  6  7  6  6  6  7  5  7  7  5  7  5  5  7  0
%c M  cc GPS ccc cccc cccc cccc cccc ccccc ccccc ccccc ccccc
%c cc cc ccc ccc cccc cccc cccc cccc ccccc ccccc ccccc ccccc
%f  0.0000000  0.000000000  0.00000000000  0.000000000000000
%f  0.0000000  0.000000000  0.00000000000  0.000000000000000
%i    0    0    0    0      0      0      0      0         0
%i    0    0    0    0      0      0      0      0         0
/* INFORMATION & ANALYSIS CENTER (IAC)      ULTRA-RAPID DATA
/* S/V CLOCKS ARE ALIGNED TO GNSS TIME                      
/* G:C1WC2W R:C1PC2P E:C1XC5X C:C2IC6I J:C1CC2S             
/* PCV:IGS20_2287 OL/AL:FES2004  NONE     YN ORB:CoN CLK:CoN
*  2023 11 25 19 15  0.00000000
PC06 -13548.509150  23650.707905 -32203.943180     40.194692
PC07 -12839.556851  40011.587904   1972.356340   -375.554429
PC08   2078.771530  31143.207564  28460.074494    219.118649
PC09  -2664.934494  24243.135504 -33998.842202   -135.906644
PC10  -5540.736611  40408.655368   9871.758715    -30.241225
PC11   9906.644015 -16816.559071 -19875.401285    274.456590
PC12  24911.886954 -11501.251585  -5066.496059    846.568923
PC13   6655.608537  34186.459690  24131.188946    387.557427
PC14   5793.845284 -27313.508895   -816.948556    855.863655
PC16 -17036.783525  22425.308338 -31242.641488   -193.820896
PC19    635.168305  26604.250191  -8357.332188   -962.884839
PC20 -10475.440643  24475.289289   8332.045872     84.954837
PC21  16251.503937  -7285.402273 -21480.169208   -969.976759
PC22  12035.933999  13529.323174 -21236.757029   -211.020051
PC23      0.000000      0.000000      0.000000 999999.999999
PC24   9961.965813 -12955.829059  22600.730954    631.762551
PC25  -9257.892753 -21631.459924  14973.418771    263.845259
PC26  21991.358707   2295.876192  17027.475747   -211.325170
PC27 -26929.781741   6516.578318  -3380.376093    233.278303
PC28 -21068.847705  -5746.510616 -17361.264588    176.199793
PC29   1387.903335  16391.763738  22541.307356    206.189703
PC30 -18581.127493  16539.851336  12662.974717     -9.070576
PC32 -16212.624460   7249.598123  21532.509426   -537.420327
PC33   -748.048305 -26648.912595   8261.267347   -943.382442
PC34  17315.056918 -16946.012364 -13839.110546    311.273300
PC35  21320.873223   4971.213535  17278.407644    494.817497
PC36   7968.776231  21730.528832 -15583.224630   -119.048444
PC37 -22147.427547  -3347.670115 -16621.233782   -899.965972
PC38  -5526.150186  27196.030113  31842.310265    120.035849
PC39 -20419.035426  22652.451110 -29195.856003     -5.809532
PC40 -19673.480929  37137.356277   -244.572608    -45.388676
PC41 -11786.095801 -14280.908341  20926.257429   -871.718766
PC42  11187.983793 -23663.780110  -9666.509688   -492.265528
PC43   -407.015717 -16760.440863 -22310.150492     49.750663
PC44  26657.820356  -7403.926742   3522.586201    303.799991
PC45  21531.892768  17742.134081   1096.314094    -49.420128
PC46  -8839.525883  13731.534589 -22640.683172   -102.584334
PE02 -15728.932035   5933.383015 -24368.123928     81.440982
PE03 -23776.843882  14141.199984  10510.204925    -75.884379
PE04  15267.474584 -24049.209575   8037.703218   -265.751453
PE05 -18440.853682  -3888.000315  22821.841465   4694.410420
PE07   1858.133431  20040.355879 -21705.171928    -89.722318
PE08 -15687.147552  23937.709630  -7549.761320   -182.554552
PE09  -1639.273541 -20033.303198  21726.305950   -240.597057
PE10  -1385.068834 -16544.521407 -24503.300355   -581.603889
PE11 -13214.480549 -16880.984077 -20415.461217   3231.666953
PE12   9421.006789 -13898.958867 -24371.465388   -792.246046
PE13  12486.089313  16884.126770  20870.865449    -19.616140
PE15  -9950.087904  13639.032809  24325.460235    -71.417408
PE19  23878.064047 -12100.834179 -12625.373507  -1141.726758
PE21  17554.365580  14935.144545  18575.793907   -565.867366
PE24  -8846.065153 -28206.086379  -1244.430041   -451.494424
PE25 -17484.894901 -15293.216327 -18335.965642     -2.891962
PE26  27522.833812   9895.066147   4594.396038    291.464691
PE27   9238.485862  28078.306823   1705.895448   -208.799195
PE30  -4772.427273  24325.943195 -16199.605653   -691.339075
PE31   4436.948379 -24513.833539  15986.496123    -10.619343
PE33  26530.933354  -2038.524252 -12970.581747      3.046226
PE34 -26222.552587   2506.995091  13489.693007    -79.927100
PE36 -27285.325071 -10201.397543  -5251.621355   -149.033316
PG01 -18032.694550 -14313.448625 -13890.980087    163.328043
PG02 -13238.877313 -14408.489498 -17549.716530   -524.141445
PG03 -11953.701563 -22325.119160   8041.599254     10.317324
PG04  -9754.901786 -11640.798648  21792.564265    222.726985
PG05   5371.448889  25531.559138   4528.703955   -151.753200
PG06 -17479.332800   7962.287560  18461.417618    496.154659
PG07 -26154.133339  -5729.392877  -1112.047399      4.096864
PG08  -2433.531985 -17811.450704 -19495.405575   -153.859294
PG09 -17917.169240   -845.464680  19520.131864      7.804176
PG10  12765.181803  -7968.424805 -21659.048311    -62.808799
PG11  -5802.448076  14007.885121  21827.362803   -475.280614
PG12   9860.284642  23679.011044   6762.737767   -450.852298
PG13  -8843.671198  20035.458909 -15075.002371    599.125084
PG14 -14944.039355   4075.426536 -21551.728485    253.419118
PG15   5062.580471  17755.835457 -19507.599868    100.705550
PG16   1779.178826 -24465.828879   9259.621881   -415.671147
PG17 -21943.465996  11618.101463  -9174.459651    722.854482
PG18  26034.883207   4503.119089  -3547.704863   -489.274478
PG19 -20772.727610  16200.462072  -1358.629596    403.871477
PG20  -2344.121583  21216.182704  15970.010897    399.805037
PG21 -10447.793602 -15070.582099 -19028.380288    143.305805
PG22 -11823.206287  12254.397722 -20015.052775     77.320624
PG23  16220.443494   5937.509821 -20216.643376    105.055598
PG24  13980.889146  15141.898288 -17374.399096   -379.568929
PG25  15978.294396  14053.961412  15734.967651    478.934248
PG26   6623.734477 -18843.570217  17195.482621    214.073480
PG27  10205.777332 -21782.433505 -11034.790866    -74.847391
PG28  19032.701562  -7890.986267  16737.588730    -54.523354
PG29  17327.723096   2712.143421  19933.294880   -610.122890
PG30 -24066.887391   2379.134893 -11158.175802   -464.384761
PG31  11724.679333 -11891.971499  20536.738442   -226.063340
PG32  20592.479420 -15225.298065  -6429.123513   -589.811025
PJ02 -20326.023557  27267.075982 -20204.989840     -0.292235
PJ03 -29487.810273  24852.418477  22274.317241     -9.532525
PJ04 -29238.026552  28320.307241  16863.360244     72.977114
PR01   9911.814629 -23317.299815  -2984.655190     70.665556
PR02   1241.088635 -21045.596786  14344.548406    -22.325366
PR03  -8866.910763  -6944.403010  22922.822982     89.701185
PR04 -13645.739860  10542.287201  18829.492235    212.593692
PR05 -11344.270376  22407.248937   4560.492924    122.820369
PR07   9165.499608   6199.827179 -22950.935221     69.944867
PR08  13635.179868 -10791.714100 -18590.984166    -73.414291
PR09  11631.488591  20707.252290  -9184.152183    155.218978
PR11  15159.310048   3322.496056  20247.112319   -215.901476
PR12   2342.053727 -13500.009546  21533.331252     33.808248
PR13 -10018.703565 -20566.034912  11261.876924    -41.691863
PR14 -18176.370007 -16019.864225  -7996.785112     25.606872
PR15 -14566.594563  -2108.136271 -20818.560145     84.486750
PR16  -2391.487142  13197.501823 -21684.704637     20.960977
PR17 -20821.207090  -3553.554708 -14252.058444     38.075766
PR18 -25143.771215   4126.725072   1656.941055    113.755901
PR19 -18108.648033   8883.476695  15617.262224   -255.967774
PR20   3329.629555  10053.421251  23219.162232   -104.137051
PR21  21232.679005   3366.966958  13761.036554    -56.171218
PR22  25079.209261  -3827.864295  -2576.308489     95.256080
PR24  -4450.522066 -10253.592654 -22902.346832    -33.530642
PR25  20729.639945   4621.367405  14155.785529     -3.781765
PR26  13538.845672 -10288.163997 -19003.941951    -15.129319
EOF
